COSMOS 2507 (RODNIK-S *)
1 40920U 15050A   26184.65308781  .00000161  00000+0  10940-2 0  9998
2 40920  82.4918  69.4185 0009453 320.6443  39.3949 12.42927671488902
COSMOS 2508 (RODNIK-S *)
1 40921U 15050B   26184.68876101  .00000077  00000+0  48429-3 0  9998
2 40921  82.4870  67.8950 0014489 352.1911   7.8940 12.42914897488892
COSMOS 2509 (RODNIK-S *)
1 40922U 15050C   26184.70950601  .00000136  00000+0  91027-3 0  9998
2 40922  82.4878  67.9861 0015165   8.8856 351.2489 12.42884565488935
LINGQIAO VIDEO A        
1 40959U 15057B   26184.68397326  .00000886  00000+0  13115-3 0  9995
2 40959  97.6622 178.6726 0015677 211.6729 148.3540 14.77414609577841
LINGQIAO VIDEO B        
1 40960U 15057C   26184.65946196  .00000053  00000+0  14233-4 0  9998
2 40960  97.6588 179.8083 0015811 211.9373 148.0881 14.77518042577886
JILIN-1                 
1 40961U 15057D   26183.85331815  .00000980  00000+0  14175-3 0  9999
2 40961  97.6511 182.4424 0016099 207.6589 152.3768 14.78186181577925
FOX-1A (AO-85)          
1 40967U 15058D   26183.84648019  .00002755  00000+0  25058-3 0  9996
2 40967  64.7736 230.3176 0131468  50.5060 310.7590 14.91035738115904
SINOD-D 1               
1 40968U 15058E   26183.78839912  .00004233  00000+0  33917-3 0  9990
2 40968  64.7730 210.0523 0120101  46.9321 314.1771 14.95999124118994
ELEKTRO-L 2             
1 41105U 15074A   26184.43514245 -.00000109  00000+0  00000+0 0  9996
2 41105   6.7323  70.3254 0000658 244.6432 108.5967  1.00273590 38665
DAMPE                   
1 41173U 15078A   26184.64092088  .00001236  00000+0  44033-4 0  9994
2 41173  97.4555 190.1891 0012856  25.3044 334.8824 15.30828158587061
ORBCOMM FM110           
1 41182U 15081D   26183.65009342  .00000812  00000+0  20786-3 0  9996
2 41182  47.0024 288.3297 0002908 165.1476 194.9496 14.58904840559883
ORBCOMM FM112           
1 41184U 15081F   26183.75716074  .00000548  00000+0  15195-3 0  9990
2 41184  46.9971 196.6196 0004130 278.6785  81.3632 14.58921598561226
ORBCOMM FM113           
1 41185U 15081G   26183.73429861  .00000358  00000+0  11196-3 0  9990
2 41185  46.9987 197.1118 0002625 277.7758  82.2829 14.58871935561206
ORBCOMM FM108           
1 41187U 15081J   26183.83348505  .00000764  00000+0  19767-3 0  9991
2 41187  47.0046 108.2203 0003134 278.3244  81.7286 14.58894583562360
ORBCOMM FM117           
1 41188U 15081K   26183.79911376  .00000651  00000+0  17401-3 0  9997
2 41188  47.0010 107.0129 0003573 282.7851  77.2635 14.58881463562402
ORBCOMM FM116           
1 41189U 15081L   26182.47813415  .00000304  00000+0  10040-3 0  9994
2 41189  47.0005 203.0491 0000940 184.3505 175.7373 14.58897315561027
HORYU-4                 
1 41340U 16012D   26182.79199294  .04204222 -38650-5  11151-2 0  9996
2 41340  30.9791 330.1929 0008659 346.1826  13.8606 16.27112331573161
ZIYUAN 3-02 (ZY 3-02)   
1 41556U 16033A   26184.69963473  .00006123  00000+0  27590-3 0  9999
2 41556  97.3829 260.1564 0012928 226.7636 133.2521 15.21339621560493
CARTOSAT-2C             
1 41599U 16040A   26185.11939593  .00005857  00000+0  28120-3 0  9991
2 41599  97.4470 244.8642 0010159  78.8288 281.4088 15.19196005556282
LAPAN-A3                
1 41603U 16040E   26184.63852431  .00004885  00000+0  15441-3 0  9990
2 41603  97.1494 180.2449 0008860 325.7569  34.3101 15.33216179557330
GAOFEN-3                
1 41727U 16049A   26184.66531421 -.00000083  00000+0 -11904-4 0  9991
2 41727  98.4007 192.2024 0001687  92.7243 267.4140 14.42217062521023
CAS-2T & KS-1Q          
1 41847U 16066G   26183.68531960  .00001723  00000+0  24772-3 0  9998
2 41847  98.3817 259.2443 0342791  82.6153 281.3851 14.44744917507030
YUNHAI-1 01             
1 41857U 16068A   26184.65059115  .00000027  00000+0  26142-4 0  9996
2 41857  98.5839 195.5018 0004032  19.7906 340.3434 14.32714074504181
RESOURCESAT-2A          
1 41877U 16074A   26184.68102465  .00000608  00000+0  29739-3 0  9994
2 41877  98.7525 258.0507 0003007  50.9187 309.2258 14.21607666496649
