OBJECT_NAME,OBJECT_ID,EPOCH,MEAN_MOTION,ECCENTRICITY,INCLINATION,RA_OF_ASC_NODE,ARG_OF_PERICENTER,MEAN_ANOMALY,EPHEMERIS_TYPE,CLASSIFICATION_TYPE,NORAD_CAT_ID,ELEMENT_SET_NO,REV_AT_EPOCH,BSTAR,MEAN_MOTION_DOT,MEAN_MOTION_DDOT
COSMOS 2507 (RODNIK-S 13),2015-050A,2026-07-03T15:40:26.786784,12.42927671,.00094538,82.4918,69.4185,320.6443,39.3949,0,U,40920,999,48890,.10939569E-2,.161E-5,0
COSMOS 2508 (RODNIK-S 14),2015-050B,2026-07-03T16:31:48.951264,12.42914897,.0014489,82.4870,67.8950,352.1911,7.8940,0,U,40921,999,48889,.48429038E-3,.77E-6,0
COSMOS 2509 (RODNIK-S 15),2015-050C,2026-07-03T17:01:41.319264,12.42884565,.00151655,82.4878,67.9861,8.8856,351.2489,0,U,40922,999,48893,.9102719E-3,.136E-5,0
LINGQIAO VIDEO A,2015-057B,2026-07-03T16:24:55.289664,14.77414609,.00156779,97.6622,178.6726,211.6729,148.3540,0,U,40959,999,57784,.13114993E-3,.886E-5,0
LINGQIAO VIDEO B,2015-057C,2026-07-03T15:49:37.513344,14.77518042,.00158116,97.6588,179.8083,211.9373,148.0881,0,U,40960,999,57788,.14233492E-4,.53E-6,0
JILIN-1,2015-057D,2026-07-02T20:28:46.688160,14.78186181,.00160994,97.6511,182.4424,207.6589,152.3768,0,U,40961,999,57792,.14175068E-3,.98E-5,0
FOX-1A (AO-85),2015-058D,2026-07-02T20:18:55.888416,14.91035738,.01314684,64.7736,230.3176,50.5060,310.7590,0,U,40967,999,11590,.25057654E-3,.2755E-4,0
SINOD-D 1,2015-058E,2026-07-02T18:55:17.683968,14.95999124,.01201016,64.7730,210.0523,46.9321,314.1771,0,U,40968,999,11899,.33917331E-3,.4233E-4,0
ELEKTRO-L 2,2015-074A,2026-07-03T10:26:36.307680,1.00273590,.0000658,6.7323,70.3254,244.6432,108.5967,0,U,41105,999,3866,0,-.109E-5,0
DAMPE,2015-078A,2026-07-03T15:22:55.564032,15.30828158,.00128562,97.4555,190.1891,25.3044,334.8824,0,U,41173,999,58706,.4403346E-4,.1236E-4,0
ORBCOMM FM110,2015-081D,2026-07-02T15:36:08.071488,14.58904840,.00029082,47.0024,288.3297,165.1476,194.9496,0,U,41182,999,55988,.20786309E-3,.812E-5,0
ORBCOMM FM112,2015-081F,2026-07-02T18:10:18.687936,14.58921598,.00041305,46.9971,196.6196,278.6785,81.3632,0,U,41184,999,56122,.15195252E-3,.548E-5,0
ORBCOMM FM113,2015-081G,2026-07-02T17:37:23.399904,14.58871935,.00026254,46.9987,197.1118,277.7758,82.2829,0,U,41185,999,56120,.11195725E-3,.358E-5,0
ORBCOMM FM108,2015-081J,2026-07-02T20:00:13.108320,14.58894583,.0003134,47.0046,108.2203,278.3244,81.7286,0,U,41187,999,56236,.19766803E-3,.764E-5,0
ORBCOMM FM117,2015-081K,2026-07-02T19:10:43.428864,14.58881463,.0003573,47.0010,107.0129,282.7851,77.2635,0,U,41188,999,56240,.17400738E-3,.651E-5,0
ORBCOMM FM116,2015-081L,2026-07-01T11:28:30.790560,14.58897315,.00009405,47.0005,203.0491,184.3505,175.7373,0,U,41189,999,56102,.10040343E-3,.304E-5,0
HORYU-4,2016-012D,2026-07-01T19:00:28.190016,16.27112331,.00086595,30.9791,330.1929,346.1826,13.8606,0,U,41340,999,57316,.11150615E-2,.4204222E-1,-.3865025E-5
ZIYUAN 3-02 (ZY 3-02),2016-033A,2026-07-03T16:47:28.440672,15.21339621,.00129288,97.3829,260.1564,226.7636,133.2521,0,U,41556,999,56049,.27589738E-3,.6123E-4,0
CARTOSAT-2C,2016-040A,2026-07-04T02:51:55.808352,15.19196005,.0010159,97.4470,244.8642,78.8288,281.4088,0,U,41599,999,55628,.2812E-3,.5857E-4,0
LAPAN-A3,2016-040E,2026-07-03T15:19:28.500384,15.33216179,.00088607,97.1494,180.2449,325.7569,34.3101,0,U,41603,999,55733,.15440688E-3,.4885E-4,0
GAOFEN-3,2016-049A,2026-07-03T15:58:03.147744,14.42217062,.00016879,98.4007,192.2024,92.7243,267.4140,0,U,41727,999,52102,-.11904287E-4,-.83E-6,0
CAS-2T & KS-1Q,2016-066G,2026-07-02T16:26:51.613440,14.44744917,.03427917,98.3817,259.2443,82.6153,281.3851,0,U,41847,999,50703,.2477234E-3,.1723E-4,0
YUNHAI-1 01,2016-068A,2026-07-03T15:36:51.075360,14.32714074,.00040325,98.5839,195.5018,19.7906,340.3434,0,U,41857,999,50418,.26142435E-4,.27E-6,0
RESOURCESAT-2A,2016-074A,2026-07-03T16:20:40.529760,14.21607666,.00030071,98.7525,258.0507,50.9187,309.2258,0,U,41877,999,49664,.29738926E-3,.608E-5,0
